PROGRESS-MS 32          
1 65586U 25204A   25331.18970139  .00009924  00000+0  18731-3 0  9991
2 65586  51.6312 219.4533 0003813 172.8713 187.2330 15.49112807   272
CYGNUS NG-23            
1 65616U 25208A   25331.18970139  .00009924  00000+0  18731-3 0  9999
2 65616  51.6312 219.4533 0003813 172.8713 187.2330 15.49112807   221
DRAGONFLY               
1 65729U 98067XH  25331.06971836  .00129788  00000+0  12054-2 0  9991
2 65729  51.6259 215.6515 0006359 187.6965 172.3934 15.66488237 10706
1998-067XJ              
1 65730U 98067XJ  25331.03605635  .01096243  57299-3  26314-2 0  9991
2 65730  51.6170 211.6207 0012113 196.6736 163.3876 15.95840981 10755
1998-067XK              
1 65731U 98067XK  25330.88707784  .00083074  00000+0  91658-3 0  9997
2 65731  51.6290 217.4402 0006026 161.3598 198.7618 15.62340942 10663
RSP-03                  
1 65732U 98067XL  25331.04366249  .00107685  00000+0  10944-2 0  9997
2 65732  51.6278 216.2303 0006919 163.8014 196.3204 15.64316778 10700
GHS-01                  
1 65733U 98067XM  25331.23438309  .00142053  00000+0  12281-2 0  9990
2 65733  51.6287 214.5061 0006863 186.1050 173.9864 15.68205857 10745
YOTSUBA-KULOVER         
1 65941U 98067XN  25331.06327764  .00063786  00000+0  86748-3 0  9999
2 65941  51.6297 218.6123 0002403 136.1231 223.9952 15.56968241  7417
BOTAN                   
1 65942U 98067XP  25331.09668132  .00092920  00000+0  11543-2 0  9992
2 65942  51.6292 218.0868 0004672 142.2724 217.8598 15.59209389  7421
E-KAGAKU-1              
1 65943U 98067XQ  25331.06301273  .00063134  00000+0  85944-3 0  9992
2 65943  51.6299 218.6131 0003890 122.3809 237.7560 15.56942505  7412
HRC MONOBLOCK CAMERA    
1 66052U 98067XR  25331.27574114  .00032442  00000+0  52029-3 0  9999
2 66052  51.6290 218.5286 0004639 122.3078 237.8361 15.52758107  6435
HTV-X1                  
1 66174U 25241A   25331.18970139  .00009924  00000+0  18731-3 0  9996
2 66174  51.6312 219.4533 0003813 172.8713 187.2330 15.49112807   513
