CCSDS_OMM_VERS = 2.0
CREATION_DATE  = 
ORIGINATOR     = 

OBJECT_NAME    = PROGRESS-MS 32
OBJECT_ID      = 2025-204A
CENTER_NAME    = EARTH
REF_FRAME      = TEME
TIME_SYSTEM    = UTC
MEAN_ELEMENT_THEORY = SGP/SGP4

EPOCH          = 2025-11-27T04:33:10.200096
MEAN_MOTION    = 15.49112807
ECCENTRICITY   = .00038133
INCLINATION    = 51.6312
RA_OF_ASC_NODE = 219.4533
ARG_OF_PERICENTER = 172.8713
MEAN_ANOMALY   = 187.2330

EPHEMERIS_TYPE = 0
CLASSIFICATION_TYPE = U
NORAD_CAT_ID   = 65586
ELEMENT_SET_NO = 999
REV_AT_EPOCH   = 27
BSTAR          = .18731196E-3
MEAN_MOTION_DOT = .9924E-4
MEAN_MOTION_DDOT = 0

CCSDS_OMM_VERS = 2.0
CREATION_DATE  = 
ORIGINATOR     = 

OBJECT_NAME    = CYGNUS NG-23
OBJECT_ID      = 2025-208A
CENTER_NAME    = EARTH
REF_FRAME      = TEME
TIME_SYSTEM    = UTC
MEAN_ELEMENT_THEORY = SGP/SGP4

EPOCH          = 2025-11-27T04:33:10.200096
MEAN_MOTION    = 15.49112807
ECCENTRICITY   = .00038133
INCLINATION    = 51.6312
RA_OF_ASC_NODE = 219.4533
ARG_OF_PERICENTER = 172.8713
MEAN_ANOMALY   = 187.2330

EPHEMERIS_TYPE = 0
CLASSIFICATION_TYPE = U
NORAD_CAT_ID   = 65616
ELEMENT_SET_NO = 999
REV_AT_EPOCH   = 22
BSTAR          = .18731196E-3
MEAN_MOTION_DOT = .9924E-4
MEAN_MOTION_DDOT = 0

CCSDS_OMM_VERS = 2.0
CREATION_DATE  = 
ORIGINATOR     = 

OBJECT_NAME    = DRAGONFLY
OBJECT_ID      = 1998-067XH
CENTER_NAME    = EARTH
REF_FRAME      = TEME
TIME_SYSTEM    = UTC
MEAN_ELEMENT_THEORY = SGP/SGP4

EPOCH          = 2025-11-27T01:40:23.666304
MEAN_MOTION    = 15.66488237
ECCENTRICITY   = .00063595
INCLINATION    = 51.6259
RA_OF_ASC_NODE = 215.6515
ARG_OF_PERICENTER = 187.6965
MEAN_ANOMALY   = 172.3934

EPHEMERIS_TYPE = 0
CLASSIFICATION_TYPE = U
NORAD_CAT_ID   = 65729
ELEMENT_SET_NO = 999
REV_AT_EPOCH   = 1070
BSTAR          = .1205449E-2
MEAN_MOTION_DOT = .129788E-2
MEAN_MOTION_DDOT = 0

CCSDS_OMM_VERS = 2.0
CREATION_DATE  = 
ORIGINATOR     = 

OBJECT_NAME    = 1998-067XJ
OBJECT_ID      = 1998-067XJ
CENTER_NAME    = EARTH
REF_FRAME      = TEME
TIME_SYSTEM    = UTC
MEAN_ELEMENT_THEORY = SGP/SGP4

EPOCH          = 2025-11-27T00:51:55.268640
MEAN_MOTION    = 15.95840981
ECCENTRICITY   = .00121135
INCLINATION    = 51.6170
RA_OF_ASC_NODE = 211.6207
ARG_OF_PERICENTER = 196.6736
MEAN_ANOMALY   = 163.3876

EPHEMERIS_TYPE = 0
CLASSIFICATION_TYPE = U
NORAD_CAT_ID   = 65730
ELEMENT_SET_NO = 999
REV_AT_EPOCH   = 1075
BSTAR          = .26314421E-2
MEAN_MOTION_DOT = .1096243E-1
MEAN_MOTION_DDOT = .57299476E-3

CCSDS_OMM_VERS = 2.0
CREATION_DATE  = 
ORIGINATOR     = 

OBJECT_NAME    = 1998-067XK
OBJECT_ID      = 1998-067XK
CENTER_NAME    = EARTH
REF_FRAME      = TEME
TIME_SYSTEM    = UTC
MEAN_ELEMENT_THEORY = SGP/SGP4

EPOCH          = 2025-11-26T21:17:23.525376
MEAN_MOTION    = 15.62340942
ECCENTRICITY   = .00060267
INCLINATION    = 51.6290
RA_OF_ASC_NODE = 217.4402
ARG_OF_PERICENTER = 161.3598
MEAN_ANOMALY   = 198.7618

EPHEMERIS_TYPE = 0
CLASSIFICATION_TYPE = U
NORAD_CAT_ID   = 65731
ELEMENT_SET_NO = 999
REV_AT_EPOCH   = 1066
BSTAR          = .91658395E-3
MEAN_MOTION_DOT = .83074E-3
MEAN_MOTION_DDOT = 0

CCSDS_OMM_VERS = 2.0
CREATION_DATE  = 
ORIGINATOR     = 

OBJECT_NAME    = RSP-03
OBJECT_ID      = 1998-067XL
CENTER_NAME    = EARTH
REF_FRAME      = TEME
TIME_SYSTEM    = UTC
MEAN_ELEMENT_THEORY = SGP/SGP4

EPOCH          = 2025-11-27T01:02:52.439136
MEAN_MOTION    = 15.64316778
ECCENTRICITY   = .00069197
INCLINATION    = 51.6278
RA_OF_ASC_NODE = 216.2303
ARG_OF_PERICENTER = 163.8014
MEAN_ANOMALY   = 196.3204

EPHEMERIS_TYPE = 0
CLASSIFICATION_TYPE = U
NORAD_CAT_ID   = 65732
ELEMENT_SET_NO = 999
REV_AT_EPOCH   = 1070
BSTAR          = .10943736E-2
MEAN_MOTION_DOT = .107685E-2
MEAN_MOTION_DDOT = 0

CCSDS_OMM_VERS = 2.0
CREATION_DATE  = 
ORIGINATOR     = 

OBJECT_NAME    = GHS-01
OBJECT_ID      = 1998-067XM
CENTER_NAME    = EARTH
REF_FRAME      = TEME
TIME_SYSTEM    = UTC
MEAN_ELEMENT_THEORY = SGP/SGP4

EPOCH          = 2025-11-27T05:37:30.698976
MEAN_MOTION    = 15.68205857
ECCENTRICITY   = .00068637
INCLINATION    = 51.6287
RA_OF_ASC_NODE = 214.5061
ARG_OF_PERICENTER = 186.1050
MEAN_ANOMALY   = 173.9864

EPHEMERIS_TYPE = 0
CLASSIFICATION_TYPE = U
NORAD_CAT_ID   = 65733
ELEMENT_SET_NO = 999
REV_AT_EPOCH   = 1074
BSTAR          = .12280894E-2
MEAN_MOTION_DOT = .142053E-2
MEAN_MOTION_DDOT = 0

CCSDS_OMM_VERS = 2.0
CREATION_DATE  = 
ORIGINATOR     = 

OBJECT_NAME    = YOTSUBA-KULOVER
OBJECT_ID      = 1998-067XN
CENTER_NAME    = EARTH
REF_FRAME      = TEME
TIME_SYSTEM    = UTC
MEAN_ELEMENT_THEORY = SGP/SGP4

EPOCH          = 2025-11-27T01:31:07.188096
MEAN_MOTION    = 15.56968241
ECCENTRICITY   = .00024033
INCLINATION    = 51.6297
RA_OF_ASC_NODE = 218.6123
ARG_OF_PERICENTER = 136.1231
MEAN_ANOMALY   = 223.9952

EPHEMERIS_TYPE = 0
CLASSIFICATION_TYPE = U
NORAD_CAT_ID   = 65941
ELEMENT_SET_NO = 999
REV_AT_EPOCH   = 741
BSTAR          = .86748301E-3
MEAN_MOTION_DOT = .63786E-3
MEAN_MOTION_DDOT = 0

CCSDS_OMM_VERS = 2.0
CREATION_DATE  = 
ORIGINATOR     = 

OBJECT_NAME    = BOTAN
OBJECT_ID      = 1998-067XP
CENTER_NAME    = EARTH
REF_FRAME      = TEME
TIME_SYSTEM    = UTC
MEAN_ELEMENT_THEORY = SGP/SGP4

EPOCH          = 2025-11-27T02:19:13.266048
MEAN_MOTION    = 15.59209389
ECCENTRICITY   = .00046726
INCLINATION    = 51.6292
RA_OF_ASC_NODE = 218.0868
ARG_OF_PERICENTER = 142.2724
MEAN_ANOMALY   = 217.8598

EPHEMERIS_TYPE = 0
CLASSIFICATION_TYPE = U
NORAD_CAT_ID   = 65942
ELEMENT_SET_NO = 999
REV_AT_EPOCH   = 742
BSTAR          = .11543122E-2
MEAN_MOTION_DOT = .9292E-3
MEAN_MOTION_DDOT = 0

CCSDS_OMM_VERS = 2.0
CREATION_DATE  = 
ORIGINATOR     = 

OBJECT_NAME    = E-KAGAKU-1
OBJECT_ID      = 1998-067XQ
CENTER_NAME    = EARTH
REF_FRAME      = TEME
TIME_SYSTEM    = UTC
MEAN_ELEMENT_THEORY = SGP/SGP4

EPOCH          = 2025-11-27T01:30:44.299872
MEAN_MOTION    = 15.56942505
ECCENTRICITY   = .000389
INCLINATION    = 51.6299
RA_OF_ASC_NODE = 218.6131
ARG_OF_PERICENTER = 122.3809
MEAN_ANOMALY   = 237.7560

EPHEMERIS_TYPE = 0
CLASSIFICATION_TYPE = U
NORAD_CAT_ID   = 65943
ELEMENT_SET_NO = 999
REV_AT_EPOCH   = 741
BSTAR          = .85943631E-3
MEAN_MOTION_DOT = .63134E-3
MEAN_MOTION_DDOT = 0

CCSDS_OMM_VERS = 2.0
CREATION_DATE  = 
ORIGINATOR     = 

OBJECT_NAME    = HRC MONOBLOCK CAMERA
OBJECT_ID      = 1998-067XR
CENTER_NAME    = EARTH
REF_FRAME      = TEME
TIME_SYSTEM    = UTC
MEAN_ELEMENT_THEORY = SGP/SGP4

EPOCH          = 2025-11-27T06:37:04.034496
MEAN_MOTION    = 15.52758107
ECCENTRICITY   = .00046393
INCLINATION    = 51.6290
RA_OF_ASC_NODE = 218.5286
ARG_OF_PERICENTER = 122.3078
MEAN_ANOMALY   = 237.8361

EPHEMERIS_TYPE = 0
CLASSIFICATION_TYPE = U
NORAD_CAT_ID   = 66052
ELEMENT_SET_NO = 999
REV_AT_EPOCH   = 643
BSTAR          = .52028678E-3
MEAN_MOTION_DOT = .32442E-3
MEAN_MOTION_DDOT = 0

CCSDS_OMM_VERS = 2.0
CREATION_DATE  = 
ORIGINATOR     = 

OBJECT_NAME    = HTV-X1
OBJECT_ID      = 2025-241A
CENTER_NAME    = EARTH
REF_FRAME      = TEME
TIME_SYSTEM    = UTC
MEAN_ELEMENT_THEORY = SGP/SGP4

EPOCH          = 2025-11-27T04:33:10.200096
MEAN_MOTION    = 15.49112807
ECCENTRICITY   = .00038133
INCLINATION    = 51.6312
RA_OF_ASC_NODE = 219.4533
ARG_OF_PERICENTER = 172.8713
MEAN_ANOMALY   = 187.2330

EPHEMERIS_TYPE = 0
CLASSIFICATION_TYPE = U
NORAD_CAT_ID   = 66174
ELEMENT_SET_NO = 999
REV_AT_EPOCH   = 51
BSTAR          = .18731196E-3
MEAN_MOTION_DOT = .9924E-4
MEAN_MOTION_DDOT = 0

